[{"OBJECT_NAME":"FLOCK 4G-12","OBJECT_ID":"2025-009S","EPOCH":"2026-03-09T17:16:21.445824","MEAN_MOTION":15.27059194,"ECCENTRICITY":0.00028933,"INCLINATION":97.4059,"RA_OF_ASC_NODE":151.1894,"ARG_OF_PERICENTER":310.1775,"MEAN_ANOMALY":49.9211,"EPHEMERIS_TYPE":0,"CLASSIFICATION_TYPE":"U","NORAD_CAT_ID":62625,"ELEMENT_SET_NO":999,"REV_AT_EPOCH":6371,"BSTAR":0.00043519262,"MEAN_MOTION_DOT":0.00011487,"MEAN_MOTION_DDOT":0},{"OBJECT_NAME":"ELECTRON KICK STAGE R\/B","OBJECT_ID":"2023-100H","EPOCH":"2026-03-09T16:45:37.763136","MEAN_MOTION":14.68103413,"ECCENTRICITY":0.03085221,"INCLINATION":99.3329,"RA_OF_ASC_NODE":332.428,"ARG_OF_PERICENTER":173.253,"MEAN_ANOMALY":187.2976,"EPHEMERIS_TYPE":0,"CLASSIFICATION_TYPE":"U","NORAD_CAT_ID":57393,"ELEMENT_SET_NO":999,"REV_AT_EPOCH":14066,"BSTAR":0.00057943845,"MEAN_MOTION_DOT":6.836e-5,"MEAN_MOTION_DDOT":0}]
